{"type":"FeatureCollection","features":[{"type":"Feature","geometry":{"type":"Polygon","coordinates":[[[-77.69817544651255,2.1968236508148493],[-76.14868740544081,0.9154888160637142],[-76.00782411764366,-2.8020817428737246],[-75.43028815837735,-6.95553357545883],[-74.21887417460462,-9.214646395510329],[-73.94010006632958,-10.376904853249485],[-73.1392832990243,-11.246289336057316],[-71.41667962694027,-11.902601961991422],[-67.95344926112311,-13.778837381802475],[-68.4816369464798,-16.35091458384207],[-72.79900138047,-17.559036948800056],[-79.527668939474,-13.019303916017023],[-82.62790666869043,-6.7787480171814565],[-82.37529238349336,-3.0729008030188396],[-79.64248879796602,1.128047989453151],[-77.69817544651255,2.1968236508148493]]]},"properties":{"_label":"mantener","_type":"polygon","_areaKm2":1556520.5377144543}}]}