{
"type": "FeatureCollection",
"name": "o1_occs_m_area",
"crs": { "type": "name", "properties": { "name": "urn:ogc:def:crs:OGC:1.3:CRS84" } },
"features": [
{ "type": "Feature", "properties": { }, "geometry": { "type": "Polygon", "coordinates": [ [ [ -77.516078776742276, -0.642769124149591 ], [ -77.516078776742276, -0.661292376309975 ], [ -77.516078776742276, -0.679824380581583 ], [ -77.539012658794235, -0.679884566690617 ], [ -77.539012658794235, -0.698426960121793 ], [ -77.561941914222416, -0.698488663027255 ], [ -77.561941914222416, -0.73560295775641 ], [ -77.561941914222416, -0.772752201368756 ], [ -77.607786501721208, -0.772888312185458 ], [ -77.607786501721208, -0.810079019469175 ], [ -77.607786501721208, -0.847304615280575 ], [ -77.607786501721208, -0.875246687641808 ], [ -77.619244739976281, -0.87528512323343 ], [ -77.619244739976281, -0.88460391087575 ], [ -77.653612452352178, -0.884720208973108 ], [ -77.653612452352178, -0.959358625361703 ], [ -77.699419679367054, -0.959526169907287 ], [ -77.699419679367054, -0.996904058531912 ], [ -77.699419679367054, -1.034316678383078 ], [ -77.699419679367054, -1.067081184217056 ], [ -77.705144261924588, -1.067104420495518 ], [ -77.705144261924588, -1.071787333317865 ], [ -77.745208096156517, -1.071950367707154 ], [ -77.745208096156517, -1.109438861459571 ], [ -77.745208096156517, -1.146961988552347 ], [ -77.790977616250842, -1.147160581969649 ], [ -77.790977616250842, -1.184724806871327 ], [ -77.790977616250842, -1.222323600754277 ], [ -77.790977616250842, -1.259956928335382 ], [ -77.836728153320635, -1.260174142982821 ], [ -77.836728153320635, -1.335557241745117 ], [ -77.836728153320635, -1.354424547827223 ], [ -77.859596276281948, -1.354540912167145 ], [ -77.859596276281948, -1.373418442302544 ], [ -77.882459621177517, -1.373536183821072 ], [ -77.882459621177517, -1.411320275159859 ], [ -77.882459621177517, -1.449138732024395 ], [ -77.928171933774721, -1.449386396046916 ], [ -77.928171933774721, -1.487245645491375 ], [ -77.928171933774721, -1.544098816789741 ], [ -77.951020880000257, -1.544230323331852 ], [ -77.951020880000257, -1.563200121796969 ], [ -77.973865005207898, -1.563332965709111 ], [ -77.973865005207898, -1.601301451179044 ], [ -77.973865005207898, -1.639304128977808 ], [ -78.01953874971575, -1.639581844834773 ], [ -78.01953874971575, -1.71570250618474 ], [ -78.01953874971575, -1.73475398641217 ], [ -78.042368347611529, -1.734900435212027 ], [ -78.042368347611529, -1.753962038994839 ], [ -78.065193081680633, -1.754109785079968 ], [ -78.065193081680633, -1.792261734435169 ], [ -78.065193081680633, -1.830447697863508 ], [ -78.110827915629301, -1.830755063211657 ], [ -78.110827915629301, -1.868981411196 ], [ -78.110827915629301, -1.926384563028452 ], [ -78.133637994176823, -1.92654575175193 ], [ -78.133637994176823, -1.945698684309679 ], [ -78.156443166233572, -1.945861129964056 ], [ -78.156443166233572, -1.984195585873622 ], [ -78.156443166233572, -2.022563872509204 ], [ -78.202038748310954, -2.022900480261796 ], [ -78.202038748310954, -2.099751153726628 ], [ -78.202038748310954, -2.118984907793944 ], [ -78.224829137072533, -2.11916063174739 ], [ -78.224829137072533, -2.138404402928396 ], [ -78.247614576825313, -2.138581343195481 ], [ -78.247614576825313, -2.17709732108853 ], [ -78.247614576825313, -2.215646941238042 ], [ -78.293170566887511, -2.216012379626457 ], [ -78.293170566887511, -2.25460195247644 ], [ -78.293170566887511, -2.31254923604607 ], [ -78.315941096011585, -2.312739288207683 ], [ -78.315941096011585, -2.332073394177707 ], [ -78.338706633756146, -2.332264621779713 ], [ -78.338706633756146, -2.370961109699585 ], [ -78.338706633756146, -2.408480229843865 ], [ -78.340129313894465, -2.40849255718135 ], [ -78.340129313894465, -2.409703379774832 ], [ -78.38422269283808, -2.410084898892453 ], [ -78.38422269283808, -2.487657598215241 ], [ -78.429718659689129, -2.488062349710692 ], [ -78.429718659689129, -2.5269050163125 ], [ -78.429718659689129, -2.565780974780376 ], [ -78.429718659689129, -2.594959766140945 ], [ -78.44108950210925, -2.595065005344667 ], [ -78.44108950210925, -2.60479581581994 ], [ -78.475194450014726, -2.605112029032425 ], [ -78.475194450014726, -2.644060734133907 ], [ -78.475194450014726, -2.683042609004938 ], [ -78.520649979670566, -2.683475157409619 ], [ -78.520649979670566, -2.722496430451397 ], [ -78.520649979670566, -2.761550792339604 ], [ -78.520649979670566, -2.781090368165598 ], [ -78.543370120493464, -2.781313754985241 ], [ -78.543370120493464, -2.800863152037864 ], [ -78.566085164663193, -2.801087613898288 ], [ -78.566085164663193, -2.879373912526355 ], [ -78.611499921150624, -2.879833830628346 ], [ -78.611499921150624, -2.91903262044124 ], [ -78.611499921150639, -2.958264290856515 ], [ -78.611499921150624, -2.977892442545066 ], [ -78.634199612545885, -2.97812942333297 ], [ -78.634199612545885, -2.997767335627417 ], [ -78.656894165443063, -2.998005349769169 ], [ -78.656894165443063, -3.037308873450916 ], [ -78.656894165443063, -3.074185673473728 ], [ -78.659730622734642, -3.074216140635772 ], [ -78.659730622734642, -3.076675640861698 ], [ -78.702267814003406, -3.077132005629553 ], [ -78.702267814003406, -3.116507194694911 ], [ -78.702267814003406, -3.15591505087187 ], [ -78.747620783447942, -3.156412120262403 ], [ -78.747620783447942, -3.195858784955145 ], [ -78.747620783447942, -3.25508985732067 ], [ -78.770289487486465, -3.255345277980926 ], [ -78.770289487486465, -3.275106776594275 ], [ -78.792952990546951, -3.27536317057933 ], [ -78.792952990546951, -3.314913613430693 ], [ -78.792952990546951, -3.354496504635779 ], [ -78.838264352225281, -3.355019873896281 ], [ -78.838264352225281, -3.454134148629798 ], [ -78.86091219011314, -3.454402625792528 ], [ -78.86091219011314, -3.474251256950179 ], [ -78.883554785562993, -3.474520665231732 ], [ -78.883554785562993, -3.514245188367504 ], [ -78.883554785562993, -3.544059730490149 ], [ -78.894874114141857, -3.544196886034633 ], [ -78.894874114141857, -3.554139474149443 ], [ -78.928824207795969, -3.554551163162841 ], [ -78.928824207795969, -3.594346204690975 ], [ -78.928824207795969, -3.634173380200365 ], [ -78.974072536316456, -3.634732321644311 ], [ -78.974072536316456, -3.674597680672232 ], [ -78.974072536316456, -3.714495082479279 ], [ -78.974072536316456, -3.734455784490649 ], [ -78.996688764662522, -3.734741908462634 ], [ -78.996688764662522, -3.754712124424714 ], [ -79.01929968867374, -3.754999118802736 ], [ -79.01929968867374, -3.829964211311856 ], [ -79.024951589669115, -3.830037280164306 ], [ -79.024951589669115, -3.835039033897842 ], [ -79.064505582574682, -3.835550017557486 ], [ -79.064505582574682, -3.875587259121304 ], [ -79.064505582574682, -3.915656309809715 ], [ -79.109690135884307, -3.916249871397004 ], [ -79.109690135884307, -3.996495288787635 ], [ -79.109690135884307, -4.056762495679487 ], [ -79.132274384193607, -4.057068802713091 ], [ -79.132274384193607, -4.077175183456401 ], [ -79.154853266626446, -4.077482293799362 ], [ -79.154853266626446, -4.117721735348629 ], [ -79.154853266626446, -4.1579926972127 ], [ -79.154853266626446, -4.198295129369099 ], [ -79.154853266626446, -4.238628981602217 ], [ -79.199994892984279, -4.239265107699472 ], [ -79.199994892984279, -4.320038900015748 ], [ -79.199994892984279, -4.441433997759353 ], [ -79.24511493330084, -4.442097158919982 ], [ -79.24511493330084, -4.482630498013363 ], [ -79.24511493330084, -4.523194906800708 ], [ -79.24511493330084, -4.563790333475247 ], [ -79.24511493330084, -4.604416726036872 ], [ -79.24511493330084, -4.63999018020632 ], [ -79.25075341651123, -4.640076511821055 ], [ -79.25075341651123, -4.645160457667024 ], [ -79.290213306079764, -4.645764035610617 ], [ -79.290213306079764, -4.727183163113343 ], [ -79.290213306079764, -4.808725326663912 ], [ -79.290213306079764, -4.890390101570985 ], [ -79.24511493330084, -4.889664110201735 ], [ -79.24511493330084, -4.930536334659775 ], [ -79.24511493330084, -4.971439048306173 ], [ -79.199994892984279, -4.970697613492888 ], [ -79.199994892984279, -5.011624719820614 ], [ -79.177426772960715, -5.011249686172887 ], [ -79.177426772960715, -5.03172311810018 ], [ -79.154853266626446, -5.031345700773529 ], [ -79.154853266626446, -5.051825199789897 ], [ -79.154853266626446, -5.092806931727323 ], [ -79.115336700453156, -5.092136354815767 ], [ -79.115336700453156, -5.097260532875278 ], [ -79.109690135884307, -5.09716442095437 ], [ -79.109690135884307, -5.133046229521366 ], [ -79.109690135884307, -5.174082329444518 ], [ -79.064505582574682, -5.173299947556393 ], [ -79.064505582574682, -5.214360060309072 ], [ -79.064505582574682, -5.255450269235733 ], [ -79.01929968867374, -5.254651972156037 ], [ -79.01929968867374, -5.295766046985307 ], [ -78.996688764662522, -5.295362438330664 ], [ -78.996688764662522, -5.315929173168408 ], [ -78.974072536316456, -5.315523095918465 ], [ -78.974072536316456, -5.336095765701904 ], [ -78.974072536316456, -5.377263541610492 ], [ -78.931652847164656, -5.376490899908466 ], [ -78.931652847164656, -5.379064512724438 ], [ -78.928824207795969, -5.379012862562917 ], [ -78.928824207795969, -5.458851893491051 ], [ -78.883554785562993, -5.458011364652545 ], [ -78.883554785562993, -5.499256059485491 ], [ -78.883554785562993, -5.54053044919755 ], [ -78.838264352225281, -5.539673532149602 ], [ -78.838264352225281, -5.580971252813018 ], [ -78.804282788466438, -5.580321295498362 ], [ -78.804282788466438, -5.590649161993706 ], [ -78.792952990546951, -5.590431628969774 ], [ -78.792952990546951, -5.621425120462829 ], [ -78.792952990546951, -5.662775601303207 ], [ -78.747620783447942, -5.661891899503482 ], [ -78.747620783447942, -5.703265470702939 ], [ -78.747620783447942, -5.744668444747481 ], [ -78.702267814003406, -5.743768007750826 ], [ -78.702267814003406, -5.785193921306725 ], [ -78.679583569404826, -5.784738992810134 ], [ -78.679583569404826, -5.805461327882835 ], [ -78.656894165443063, -5.805003783386594 ], [ -78.656894165443063, -5.86720980805625 ], [ -78.622850408507801, -5.866514327345979 ], [ -78.622850408507801, -5.876887171323173 ], [ -78.611499921150639, -5.876654429347242 ], [ -78.611499921150639, -5.907782673896785 ], [ -78.611499921150624, -5.949312464098313 ], [ -78.566085164663193, -5.948367563795617 ], [ -78.566085164663193, -6.031501219964155 ], [ -78.520649979670566, -6.030539109897597 ], [ -78.520649979670566, -6.072142822808257 ], [ -78.497924752679509, -6.071656912791091 ], [ -78.497924752679509, -6.092467958025654 ], [ -78.475194450014726, -6.091979346329061 ], [ -78.475194450014726, -6.112795956632008 ], [ -78.475194450014726, -6.154450774753074 ], [ -78.432561488567458, -6.153522486504634 ], [ -78.432561488567458, -6.156126480996714 ], [ -78.429718659689129, -6.156064435167278 ], [ -78.429718659689129, -6.195137429353706 ], [ -78.429718659689129, -6.236843077983073 ], [ -78.38422269283808, -6.235835212118727 ], [ -78.38422269283808, -6.277562850868756 ], [ -78.361467169551716, -6.277053957041357 ], [ -78.361467169551716, -6.297926826901739 ], [ -78.338706633756146, -6.29741516895555 ], [ -78.338706633756146, -6.318293503372305 ], [ -78.338706633756146, -6.360071541455178 ], [ -78.304556454711033, -6.359294461656709 ], [ -78.304556454711047, -6.369742162073042 ], [ -78.293170566887511, -6.369482160683208 ], [ -78.293170566887511, -6.442662818883936 ], [ -78.247614576825313, -6.441608251439733 ], [ -78.247614576825313, -6.483457996446336 ], [ -78.247614576825313, -6.525335998440191 ], [ -78.202038748310954, -6.524263398142791 ], [ -78.202038748310954, -6.566162828863139 ], [ -78.179243421156329, -6.565621422462282 ], [ -78.179243421156329, -6.586579993891544 ], [ -78.156443166233572, -6.586035737400743 ], [ -78.156443166233572, -6.606999632647311 ], [ -78.156443166233572, -6.648948468165651 ], [ -78.116530894667292, -6.647984284355072 ], [ -78.116530894667292, -6.653229112483764 ], [ -78.110827915629301, -6.653090974020696 ], [ -78.110827915629301, -6.689816265365124 ], [ -78.110827915629301, -6.731814223537132 ], [ -78.065193081680633, -6.730693627261251 ], [ -78.065193081680633, -6.772712604293679 ], [ -78.065193081680633, -6.814759401754436 ], [ -78.01953874971575, -6.813620297454564 ], [ -78.01953874971575, -6.855687955038277 ], [ -77.985285256581008, -6.854825298510387 ], [ -77.985285256581008, -6.865345244136446 ], [ -77.973865005207898, -6.865056657164035 ], [ -77.973865005207898, -6.896625567848812 ], [ -77.973865005207898, -6.93874162083454 ], [ -77.928171933774721, -6.937572082136545 ], [ -77.928171933774721, -7.021872902571143 ], [ -77.882459621177517, -7.020684507959804 ], [ -77.882459621177517, -7.062869115258994 ], [ -77.859596276281948, -7.062269560142222 ], [ -77.859596276281948, -7.083370379056861 ], [ -77.836728153320635, -7.082767825140861 ], [ -77.836728153320635, -7.103873721370703 ], [ -77.836728153320635, -7.146105989476531 ], [ -77.79383758185601, -7.144962923496145 ], [ -77.79383758185601, -7.14760293208218 ], [ -77.790977616250842, -7.14752654309155 ], [ -77.790977616250842, -7.187139018706401 ], [ -77.790977616250842, -7.229418658344595 ], [ -77.745208096156517, -7.228180027452397 ], [ -77.745208096156517, -7.270479694032988 ], [ -77.722316244447612, -7.269854914686962 ], [ -77.722316244447612, -7.291013118282541 ], [ -77.699419679367054, -7.290385277488263 ], [ -77.699419679367054, -7.311548453568318 ], [ -77.699419679367054, -7.353895039169143 ], [ -77.665066017830469, -7.352942828213332 ], [ -77.665066017830469, -7.363532343054979 ], [ -77.653612452352192, -7.363213844414241 ], [ -77.653612452352178, -7.437384343710036 ], [ -77.607786501721208, -7.436094531229444 ], [ -77.607786501721208, -7.478507348977654 ], [ -77.607786501721208, -7.520946895051451 ], [ -77.561941914222416, -7.519637405220903 ], [ -77.561941914222416, -7.562096393169017 ], [ -77.539012658794235, -7.561436039062776 ], [ -77.539012658794235, -7.58267369981306 ], [ -77.516078776742276, -7.582010198169935 ], [ -77.516078776742276, -7.603252684799292 ], [ -77.516078776742276, -7.645757548001174 ], [ -77.470197176304836, -7.644415609610622 ], [ -77.470197176304836, -7.686939653148491 ], [ -77.470197176304822, -7.729490095536577 ], [ -77.424297200070896, -7.728128133288149 ], [ -77.424297200070896, -7.770697591333088 ], [ -77.401340348305254, -7.770010895139024 ], [ -77.401340348305254, -7.79130364290936 ], [ -77.378378935337466, -7.790613736596541 ], [ -77.378378935337466, -7.85452577832342 ], [ -77.335314030227636, -7.853218121465299 ], [ -77.335314030227636, -7.855881968396793 ], [ -77.332442469536886, -7.855794589061282 ], [ -77.332442469536886, -7.895764098124862 ], [ -77.332442469536886, -7.938423491020814 ], [ -77.286487890236259, -7.937008114008411 ], [ -77.286487890236259, -7.979686093227508 ], [ -77.263503835424785, -7.978972583918373 ], [ -77.263503835424785, -8.000319443027573 ], [ -77.240515285136624, -7.99960266107985 ], [ -77.240515285136624, -8.020954131726082 ], [ -77.240515285136624, -8.063676462685711 ], [ -77.20027453793233, -8.062408884067077 ], [ -77.20027453793233, -8.067750173233403 ], [ -77.194524742072261, -8.067568617242765 ], [ -77.194524742072261, -8.104968097153884 ], [ -77.194524742072261, -8.147734478415359 ], [ -77.148516349010038, -8.146264746054513 ], [ -77.148516349010038, -8.189049281293963 ], [ -77.125505486255406, -8.188308488759464 ], [ -77.125505486255406, -8.209708475445282 ], [ -77.102490194048585, -8.208964347835231 ], [ -77.102490194048585, -8.273196953188991 ], [ -77.067958974651901, -8.272069526711473 ], [ -77.067958974651901, -8.282779117239109 ], [ -77.056446365417614, -8.282402102576848 ], [ -77.056446365417614, -8.31453898835049 ], [ -77.056446365417614, -8.357410379948455 ], [ -77.010384951477221, -8.355885353745283 ], [ -77.010384951477221, -8.441688826775165 ], [ -76.964306040717034, -8.440142616595812 ], [ -76.964306040717034, -8.4830745292694 ], [ -76.929735428663662, -8.481905202222956 ], [ -76.929735428663662, -8.492640670872175 ], [ -76.918209721755588, -8.492249664093714 ], [ -76.918209721755588, -8.524464037951724 ], [ -76.918209721755588, -8.567438446429744 ], [ -76.872096083339557, -8.565857190310819 ], [ -76.872096083339557, -8.60884887947152 ], [ -76.872096083339557, -8.651865476201568 ], [ -76.825965214342972, -8.650262693446614 ], [ -76.825965214342958, -8.693296400994191 ], [ -76.802893346184717, -8.692488834034521 ], [ -76.802893346184717, -8.714013042757838 ], [ -76.779817203766427, -8.713201992931291 ], [ -76.779817203766427, -8.734730443623237 ], [ -76.779817203766427, -8.777805860566524 ], [ -76.733652140736496, -8.776167441209456 ], [ -76.733652140736496, -8.862376514470565 ], [ -76.687470114504777, -8.860716227019505 ], [ -76.687470114504777, -8.903849712408244 ], [ -76.66437276811341, -8.903013288438624 ], [ -76.66437276811341, -8.924587231877259 ], [ -76.641271214447258, -8.92374726304031 ], [ -76.641271214447258, -8.945325337815863 ], [ -76.641271214447258, -8.988499740329829 ], [ -76.595777778754979, -8.986829784594377 ], [ -76.595777778754979, -8.987504456230926 ], [ -76.595055530063547, -8.987477897202924 ], [ -76.595055530063547, -9.02999402665759 ], [ -76.595055530063547, -9.073209033974361 ], [ -76.548823150976006, -9.071490312912319 ], [ -76.548823150976006, -9.114721544929051 ], [ -76.525700728958711, -9.113855799833054 ], [ -76.525700728958711, -9.135478461355 ], [ -76.502574166929122, -9.134609109565741 ], [ -76.502574166929122, -9.156235791170158 ], [ -76.502574166929122, -9.199507142368143 ], [ -76.459200743623512, -9.197861521589216 ], [ -76.459200743623512, -9.200566308991437 ], [ -76.456308667788619, -9.200456365426412 ], [ -76.456308667788619, -9.284350067094701 ], [ -76.41002674354074, -9.282571987043641 ], [ -76.41002674354074, -9.325898920787951 ], [ -76.386879650155009, -9.325003392254031 ], [ -76.386879650155009, -9.346673748422006 ], [ -76.363728484291485, -9.345774551564432 ], [ -76.363728484291485, -9.367448815966599 ], [ -76.363728484291485, -9.410815065466501 ], [ -76.320309110979792, -9.409113252302474 ], [ -76.320309110979792, -9.411823953659308 ], [ -76.317413980265783, -9.411710258734839 ], [ -76.317413980265783, -9.452381341223196 ], [ -76.317413980265783, -9.495786589679515 ], [ -76.271083321806699, -9.493948229129332 ], [ -76.271083321806699, -9.537368806515365 ], [ -76.247911962928967, -9.536443034202378 ], [ -76.247911962928967, -9.55816005502535 ], [ -76.224736599374722, -9.557230552974863 ], [ -76.224736599374722, -9.578951369619242 ], [ -76.224736599374722, -9.622410454048721 ], [ -76.184170110971706, -9.620769031978464 ], [ -76.184170110971706, -9.626202159020009 ], [ -76.178373903546898, -9.625967114530317 ], [ -76.178373903546898, -9.707505524561801 ], [ -76.131995325016078, -9.705605966201031 ], [ -76.131995325016078, -9.749118116467647 ], [ -76.108800108110003, -9.748161642170151 ], [ -76.108800108110003, -9.76992429135904 ], [ -76.085600954590092, -9.768964026147723 ], [ -76.085600954590092, -9.790730358210444 ], [ -76.085600954590092, -9.834280201720359 ], [ -76.044992997652358, -9.832584733239621 ], [ -76.044992997652358, -9.838029169863356 ], [ -76.039190883190969, -9.83778639338685 ], [ -76.039190883190969, -9.875906529336909 ], [ -76.039190883190969, -9.919493745118345 ], [ -75.992765201854183, -9.917532076164253 ], [ -75.992765201854183, -9.961133716393222 ], [ -75.96954653593852, -9.960146084206457 ], [ -75.96954653593852, -9.981953319433813 ], [ -75.946324001727703, -9.980961835415354 ], [ -75.946324001727703, -10.002772640064272 ], [ -75.946324001727703, -10.046411154850039 ], [ -75.905675293099478, -10.044660843814487 ], [ -75.905675293099478, -10.050116328938346 ], [ -75.899867374071349, -10.049865706766482 ], [ -75.899867374071349, -10.131738078865849 ], [ -75.853395410255899, -10.129713391393651 ], [ -75.853395410255899, -10.173402427035569 ], [ -75.830153705871993, -10.172383183519935 ], [ -75.830153705871993, -10.194233956683448 ], [ -75.806908201762241, -10.193210800697583 ], [ -75.806908201762241, -10.215065029356138 ], [ -75.806908201762241, -10.258790116186642 ], [ -75.763312679983144, -10.256854960588685 ], [ -75.763312679983144, -10.259588020028337 ], [ -75.760405840180667, -10.259458748222722 ], [ -75.760405840180653, -10.3004644979031 ], [ -75.760405840180653, -10.344225311092048 ], [ -75.713888417209915, -10.342136702362993 ], [ -75.713888417209915, -10.385911027770506 ], [ -75.690624086388937, -10.384859722115497 ], [ -75.690624086388937, -10.406752979605148 ], [ -75.66735602465647, -10.4056977011415 ], [ -75.66735602465647, -10.427594299756203 ], [ -75.66735602465647, -10.471403848509924 ], [ -75.62226358091344, -10.469341603655316 ], [ -75.62226358091344, -10.47071074516802 ], [ -75.620808754433682, -10.470644096170952 ], [ -75.620808754433682, -10.556942188519205 ], [ -75.574246698560927, -10.554788761307313 ], [ -75.574246698560913, -10.598646260275345 ], [ -75.550960154790644, -10.597562444462746 ], [ -75.550960154790644, -10.619497127431419 ], [ -75.527669949162771, -10.618409278792615 ], [ -75.527669949162771, -10.640347188103974 ], [ -75.527669949162771, -10.684239078311947 ], [ -75.481078598468201, -10.682044808012293 ], [ -75.481078598468201, -10.643645753723405 ], [ -75.475253657575195, -10.6433718761586 ], [ -75.475253657575195, -10.637887769919157 ], [ -75.434472738809731, -10.635968248519095 ], [ -75.434472738809731, -10.548283313638434 ], [ -75.434472738809731, -10.504473199048496 ], [ -75.457777476484651, -10.505557828152378 ], [ -75.457777476484651, -10.483658732897327 ], [ -75.481078598468201, -10.484739331925047 ], [ -75.481078598468201, -10.462843507745468 ], [ -75.481078598468201, -10.419068175723513 ], [ -75.481078598468201, -10.375314661060694 ], [ -75.481078598468201, -10.331583038313802 ], [ -75.481078598468201, -10.287873381885323 ], [ -75.481078598468201, -10.244185766022962 ], [ -75.504376093209189, -10.245240822045311 ], [ -75.504376093209189, -10.223403150020266 ], [ -75.527669949162771, -10.224454227877676 ], [ -75.527669949162771, -10.115338375674474 ], [ -75.527669949162771, -10.028146148578962 ], [ -75.527669949162771, -9.984583722015127 ], [ -75.574246698560913, -9.986633246195957 ], [ -75.574246698560913, -9.943084800476274 ], [ -75.574246698560913, -9.899558983169074 ], [ -75.574246698560913, -9.856055867191957 ], [ -75.574246698560913, -9.812575525303192 ], [ -75.574246698560913, -9.769118030101296 ], [ -75.620808754433682, -9.771117692662568 ], [ -75.620808754433682, -9.684254440684647 ], [ -75.620808754433682, -9.597483442583163 ], [ -75.620808754433682, -9.554132718625542 ], [ -75.66735602465647, -9.556082818850777 ], [ -75.66735602465647, -9.512746858514772 ], [ -75.66735602465647, -9.46943424885084 ], [ -75.66735602465647, -9.426145061245947 ], [ -75.66735602465647, -9.382879366923502 ], [ -75.66735602465647, -9.33963723694295 ], [ -75.708072684905872, -9.341300839180793 ], [ -75.708072684905872, -9.335896305152154 ], [ -75.713888417209915, -9.336133412595347 ], [ -75.713888417209915, -9.255107827389097 ], [ -75.713888417209915, -9.168772683313803 ], [ -75.713888417209915, -9.125640952593036 ], [ -75.73714900563354, -9.126567715432181 ], [ -75.73714900563354, -9.105008726174786 ], [ -75.760405840180653, -9.105931744945083 ], [ -75.760405840180667, -9.084376650328496 ], [ -75.760405840180667, -9.041284513507451 ], [ -75.760405840180667, -8.99821650472995 ], [ -75.760405840180667, -8.955172693642274 ], [ -75.760405840180653, -8.912153149722865 ], [ -75.783658909378786, -8.913055575859925 ], [ -75.783658909378786, -8.891552819089865 ], [ -75.806908201762241, -8.8924515471516 ], [ -75.806908201762241, -8.827973560341468 ], [ -75.806908201762241, -8.742088615155712 ], [ -75.806908201762241, -8.656302121347549 ], [ -75.853395410255885, -8.658048675974015 ], [ -75.853395410255899, -8.615184135441879 ], [ -75.853395410255899, -8.572344413762625 ], [ -75.853395410255899, -8.529529578966351 ], [ -75.853395410255885, -8.48673969891178 ], [ -75.853395410255899, -8.443974841285939 ], [ -75.899867374071349, -8.445673435926512 ], [ -75.899867374071349, -8.402925319309341 ], [ -75.899867374071349, -8.232185108467643 ], [ -75.934711287577272, -8.23342388335351 ], [ -75.934711287577272, -8.222764524060331 ], [ -75.946324001727703, -8.22317619278917 ], [ -75.946324001727703, -8.191206103976809 ], [ -75.946324001727703, -8.148601631069319 ], [ -75.946324001727703, -8.106022718627759 ], [ -75.946324001727703, -8.063469432855644 ], [ -75.946324001727703, -8.020941839781621 ], [ -75.946324001727703, -7.978440005259184 ], [ -75.992765201854183, -7.98003539163983 ], [ -75.992765201854183, -7.895092713256188 ], [ -75.992765201854183, -7.810253861304851 ], [ -75.992765201854183, -7.767873533099053 ], [ -76.039190883190969, -7.769421993335194 ], [ -76.039190883190969, -7.72705958017302 ], [ -76.039190883190969, -7.684723385085376 ], [ -76.039190883190969, -7.642413472588357 ], [ -76.039190883190969, -7.600129907020343 ], [ -76.039190883190969, -7.557872752541749 ], [ -76.073999905152405, -7.558999666913747 ], [ -76.073999905152391, -7.548437974592614 ], [ -76.085600954590092, -7.548812423629706 ], [ -76.085600954590092, -7.390578617583945 ], [ -76.085600954590092, -7.348446284656547 ], [ -76.108800108110003, -7.349174760815346 ], [ -76.108800108110003, -7.328116596724955 ], [ -76.131995325016078, -7.328841717632452 ], [ -76.131995325016078, -7.307788222656606 ], [ -76.131995325016078, -7.26570138510149 ], [ -76.131995325016078, -7.223641469722824 ], [ -76.131995325016078, -7.181608539140099 ], [ -76.131995325016078, -7.139602655792369 ], [ -76.131995325016078, -7.097623881938044 ], [ -76.178373903546898, -7.099025507345087 ], [ -76.178373903546898, -7.057065789292539 ], [ -76.178373903546898, -6.973228122186737 ], [ -76.178373903546898, -6.88949989117432 ], [ -76.213147419382906, -6.890517449981084 ], [ -76.213147419382906, -6.880057625455441 ], [ -76.224736599374722, -6.880395689990132 ], [ -76.224736599374722, -6.849025020431905 ], [ -76.224736599374722, -6.807221567457921 ], [ -76.224736599374722, -6.765445720489498 ], [ -76.224736599374722, -6.723697540219314 ], [ -76.224736599374722, -6.681977087157286 ], [ -76.224736599374722, -6.640284421630393 ], [ -76.271083321806699, -6.641587375147837 ], [ -76.271083321806699, -6.55826959004529 ], [ -76.271083321806699, -6.475063685127568 ], [ -76.271083321806699, -6.433502836691622 ], [ -76.311623529549948, -6.434604027190139 ], [ -76.311623529549948, -6.429410025205626 ], [ -76.317413980265783, -6.429566925059013 ], [ -76.317413980265783, -6.393220364727912 ], [ -76.317413980265783, -6.351707888095295 ], [ -76.317413980265783, -6.3102236806839 ], [ -76.317413980265783, -6.268767801233709 ], [ -76.317413980265783, -6.227340308300024 ], [ -76.317413980265783, -6.185941260253314 ], [ -76.363728484291485, -6.187147157485317 ], [ -76.363728484291485, -6.145768672187426 ], [ -76.363728484291485, -6.063097451614463 ], [ -76.363728484291485, -5.980540949131165 ], [ -76.41002674354074, -5.981702883510035 ], [ -76.41002674354074, -5.940459899288181 ], [ -76.41002674354074, -5.899245769644371 ], [ -76.41002674354074, -5.85806055153044 ], [ -76.41002674354074, -5.816904301712102 ], [ -76.41002674354074, -5.775777076768858 ], [ -76.433169753174269, -5.776336766007806 ], [ -76.433169753174283, -5.755782090796635 ], [ -76.456308667788619, -5.756338783040344 ], [ -76.456308667788619, -5.571657414657003 ], [ -76.456308667788619, -5.530697682733728 ], [ -76.502574166929122, -5.531765002490936 ], [ -76.502574166929122, -5.490826888261122 ], [ -76.502574166929122, -5.449918251754563 ], [ -76.502574166929122, -5.409039147932678 ], [ -76.502574166929122, -5.368189631569599 ], [ -76.502574166929122, -5.327369757252089 ], [ -76.502574166929122, -5.286579579379484 ], [ -76.548823150976006, -5.287596349564928 ], [ -76.548823150976006, -5.246828171067261 ], [ -76.548823150976006, -5.165381292862617 ], [ -76.548823150976006, -5.084054077886844 ], [ -76.589277393829931, -5.084906879750831 ], [ -76.589277393829931, -5.079827068778246 ], [ -76.595055530063547, -5.079948549481027 ], [ -76.595055530063547, -5.044402176531263 ], [ -76.595055530063547, -5.003805951933832 ], [ -76.595055530063547, -4.96323985982129 ], [ -76.595055530063547, -4.922703952963039 ], [ -76.595055530063547, -4.882198283940345 ], [ -76.595055530063547, -4.841722905146305 ], [ -76.641271214447258, -4.842647667711022 ], [ -76.641271214447258, -4.761772689055826 ], [ -76.641271214447258, -4.681019511140173 ], [ -76.641271214447258, -4.640688726514931 ], [ -76.66437276811341, -4.641130748841319 ], [ -76.66437276811341, -4.620974927150369 ], [ -76.687470114504777, -4.621414218075111 ], [ -76.687470114504777, -4.601264155613165 ], [ -76.687470114504777, -4.560987031945297 ], [ -76.687470114504777, -4.520740619052617 ], [ -76.687470114504777, -4.48052496769074 ], [ -76.687470114504777, -4.440340128426755 ], [ -76.687470114504777, -4.400186151639222 ], [ -76.733652140736496, -4.401020648469465 ], [ -76.733652140736496, -4.360890034129369 ], [ -76.733652140736496, -4.280721755911294 ], [ -76.733652140736496, -4.200677742972333 ], [ -76.733652140736496, -4.160702459523938 ], [ -76.779817203766427, -4.161488735047523 ], [ -76.779817203766427, -4.121537169698343 ], [ -76.779817203766427, -4.081616871793884 ], [ -76.779817203766427, -4.041727890070934 ], [ -76.779817203766427, -4.001870273077719 ], [ -76.779817203766427, -3.962044069173924 ], [ -76.81442981524259, -3.962603834185485 ], [ -76.81442981524259, -3.95265080011186 ], [ -76.825965214342958, -3.95283656865791 ], [ -76.825965214342958, -3.80377058764617 ], [ -76.825965214342972, -3.724450596945361 ], [ -76.872096083339557, -3.725149319220003 ], [ -76.872096083339557, -3.685529536553137 ], [ -76.872096083339557, -3.64594155631241 ], [ -76.872096083339557, -3.606385425214632 ], [ -76.872096083339557, -3.566861189788353 ], [ -76.872096083339557, -3.527368896373928 ], [ -76.872096083339557, -3.487908591123582 ], [ -76.918209721755588, -3.488560542453941 ], [ -76.918209721755588, -3.40972141688172 ], [ -76.918209721755588, -3.331010812182458 ], [ -76.918209721755588, -3.29170381860689 ], [ -76.941260051717791, -3.292010598780458 ], [ -76.941260051717791, -3.272367376379571 ], [ -76.964306040717034, -3.272671748061945 ], [ -76.964306040717034, -3.253034779939848 ], [ -76.964306040717034, -3.213785086068565 ], [ -76.964306040717034, -3.174567752591153 ], [ -76.964306040717034, -3.135382824019443 ], [ -76.964306040717034, -3.096230344677751 ], [ -76.964306040717034, -3.05711035870297 ], [ -76.998866860654559, -3.057535936068104 ], [ -76.998866860654559, -3.047759666206677 ], [ -77.010384951477221, -3.047900800696512 ], [ -77.010384951477221, -3.018582848324542 ], [ -77.010384951477221, -2.862530451050179 ], [ -77.010384951477221, -2.823599142238166 ], [ -77.056446365417614, -2.824121011177263 ], [ -77.056446365417614, -2.785215337995804 ], [ -77.056446365417614, -2.74634251476832 ], [ -77.056446365417614, -2.707502583996513 ], [ -77.056446365417614, -2.668695587995568 ], [ -77.056446365417614, -2.629921568894276 ], [ -77.056446365417614, -2.591180568635159 ], [ -77.102490194048585, -2.591657660623602 ], [ -77.102490194048585, -2.552942613018012 ], [ -77.102490194048585, -2.47561188138507 ], [ -77.102490194048585, -2.398413909642346 ], [ -77.102490194048585, -2.359864811203177 ], [ -77.148516349010038, -2.360297645836098 ], [ -77.148516349010038, -2.321774811194355 ], [ -77.148516349010038, -2.283285334936792 ], [ -77.148516349010038, -2.244829257379859 ], [ -77.148516349010038, -2.206406618654945 ], [ -77.148516349010038, -2.168017458708536 ], [ -77.171522771287783, -2.168215699386773 ], [ -77.171522771287783, -2.149031935715975 ], [ -77.194524742072261, -2.149228041584072 ], [ -77.194524742072261, -2.091721844253225 ], [ -77.194524742072261, -1.938741975755364 ], [ -77.217522250355188, -1.938918560285973 ], [ -77.217522250355188, -1.919832268822949 ], [ -77.240515285136624, -1.920006774683871 ], [ -77.240515285136624, -1.900927196874778 ], [ -77.240515285136624, -1.862793398156305 ], [ -77.240515285136624, -1.824693440561201 ], [ -77.240515285136624, -1.78662736223748 ], [ -77.240515285136624, -1.748595201149904 ], [ -77.240515285136624, -1.710596995080173 ], [ -77.263503835424785, -1.710752186491807 ], [ -77.263503835424785, -1.691764107849773 ], [ -77.286487890236259, -1.691917276624038 ], [ -77.286487890236259, -1.634998933525798 ], [ -77.286487890236259, -1.559227086159874 ], [ -77.286487890236259, -1.483591826118906 ], [ -77.309467438595902, -1.483725888382198 ], [ -77.309467438595902, -1.464836744298954 ], [ -77.332442469536886, -1.464968839837215 ], [ -77.332442469536886, -1.446086554897056 ], [ -77.332442469536886, -1.408347686188173 ], [ -77.332442469536886, -1.370643115840495 ], [ -77.332442469536886, -1.332972879854541 ], [ -77.332442469536886, -1.295337014049719 ], [ -77.332442469536886, -1.257735554064538 ], [ -77.35541297210078, -1.257848751996935 ], [ -77.35541297210078, -1.239059245407425 ], [ -77.378378935337466, -1.239170532395494 ], [ -77.378378935337466, -1.182848667831736 ], [ -77.378378935337466, -1.033037040597432 ], [ -77.401340348305254, -1.033129639769198 ], [ -77.401340348305254, -1.01444045488708 ], [ -77.424297200070896, -1.014531198752132 ], [ -77.424297200070896, -0.995849012599628 ], [ -77.424297200070896, -0.958510666775257 ], [ -77.424297200070896, -0.921207051287041 ], [ -77.424297200070896, -0.883938200012836 ], [ -77.424297200070896, -0.846704146651838 ], [ -77.424297200070896, -0.80950492472482 ], [ -77.447249479709541, -0.809577191366275 ], [ -77.447249479709541, -0.79098899377425 ], [ -77.470197176304836, -0.791059460592255 ], [ -77.470197176304836, -0.735342248844865 ], [ -77.470197176304836, -0.698241105313523 ], [ -77.470197176304836, -0.661174931546431 ], [ -77.493140278948871, -0.661233712820351 ], [ -77.493140278948871, -0.642712103584787 ], [ -77.516078776742276, -0.642769124149591 ] ] ] } }
]
}
