{
"type": "FeatureCollection",
"name": "o8_aoo_grid",
"crs": { "type": "name", "properties": { "name": "urn:ogc:def:crs:OGC:1.3:CRS84" } },
"features": [
{ "type": "Feature", "properties": { }, "geometry": { "type": "Polygon", "coordinates": [ [ [ -75.524198152563443, -10.663132002142182 ], [ -75.505553546568137, -10.664935897968258 ], [ -75.503637628982347, -10.647393333527923 ], [ -75.522279963547618, -10.645589538923893 ], [ -75.524198152563443, -10.663132002142182 ] ] ] } },
{ "type": "Feature", "properties": { }, "geometry": { "type": "Polygon", "coordinates": [ [ [ -75.522279963547618, -10.645589538923893 ], [ -75.503637628982347, -10.647393333527923 ], [ -75.501722183156886, -10.629849569885993 ], [ -75.520362246839468, -10.628045876334314 ], [ -75.522279963547618, -10.645589538923893 ] ] ] } },
{ "type": "Feature", "properties": { }, "geometry": { "type": "Polygon", "coordinates": [ [ [ -75.464440641578832, -10.633450439666905 ], [ -75.44579916477791, -10.635247615824772 ], [ -75.443891002586156, -10.617702349548386 ], [ -75.462530208531561, -10.615905273962941 ], [ -75.464440641578832, -10.633450439666905 ] ] ] } },
{ "type": "Feature", "properties": { }, "geometry": { "type": "Polygon", "coordinates": [ [ [ -75.521207771396334, -10.290876412626799 ], [ -75.502611688988154, -10.292682559274226 ], [ -75.50070112224239, -10.275114711428236 ], [ -75.519294945018189, -10.27330866264443 ], [ -75.521207771396334, -10.290876412626799 ] ] ] } },
{ "type": "Feature", "properties": { }, "geometry": { "type": "Polygon", "coordinates": [ [ [ -76.05078113683706, -9.651643537243231 ], [ -76.032274459614442, -9.653515878605244 ], [ -76.030307633757602, -9.635909719211643 ], [ -76.048812074694411, -9.634037473066265 ], [ -76.05078113683706, -9.651643537243231 ] ] ] } },
{ "type": "Feature", "properties": { }, "geometry": { "type": "Polygon", "coordinates": [ [ [ -76.102347220786314, -9.610800678091389 ], [ -76.083846460419309, -9.612679327056631 ], [ -76.081873890688314, -9.595070888060389 ], [ -76.100372416364976, -9.593192334232013 ], [ -76.102347220786314, -9.610800678091389 ] ] ] } },
{ "type": "Feature", "properties": { }, "geometry": { "type": "Polygon", "coordinates": [ [ [ -77.71051739716178, -5.769912452521246 ], [ -77.692514516061536, -5.772014029668314 ], [ -77.69040136075408, -5.754120017610578 ], [ -77.70840213097506, -5.752018504935922 ], [ -77.71051739716178, -5.769912452521246 ] ] ] } },
{ "type": "Feature", "properties": { }, "geometry": { "type": "Polygon", "coordinates": [ [ [ -77.742283178674469, -5.729913603890347 ], [ -77.724285524796429, -5.732019350831079 ], [ -77.722169154526853, -5.714122248132903 ], [ -77.74016469885818, -5.712016565352011 ], [ -77.742283178674469, -5.729913603890347 ] ] ] } },
{ "type": "Feature", "properties": { }, "geometry": { "type": "Polygon", "coordinates": [ [ [ -77.776154276448622, -5.707798752215504 ], [ -77.758159739661181, -5.709908733372729 ], [ -77.756039654492483, -5.692010146494457 ], [ -77.774032082578046, -5.689900229381053 ], [ -77.776154276448622, -5.707798752215504 ] ] ] } },
{ "type": "Feature", "properties": { }, "geometry": { "type": "Polygon", "coordinates": [ [ [ -77.792024006339886, -5.68778816315107 ], [ -77.774032082578046, -5.689900229381053 ], [ -77.771910393031192, -5.672000092252087 ], [ -77.789900208757075, -5.669888089908078 ], [ -77.792024006339886, -5.68778816315107 ] ] ] } },
{ "type": "Feature", "properties": { }, "geometry": { "type": "Polygon", "coordinates": [ [ [ -78.883892857578701, -5.082319666743639 ], [ -78.865988565914549, -5.084567577929793 ], [ -78.863746181899401, -5.066628746839005 ], [ -78.881648389780295, -5.064380896488062 ], [ -78.883892857578701, -5.082319666743639 ] ] ] } },
{ "type": "Feature", "properties": { }, "geometry": { "type": "Polygon", "coordinates": [ [ [ -79.120863310774354, -4.942970874065125 ], [ -79.102978974750684, -4.945248476119576 ], [ -79.100710653433538, -4.927300439444126 ], [ -79.11859291116312, -4.925022897357437 ], [ -79.120863310774354, -4.942970874065125 ] ] ] } },
{ "type": "Feature", "properties": { }, "geometry": { "type": "Polygon", "coordinates": [ [ [ -79.219029817451059, -4.857459612292326 ], [ -79.201157012907402, -4.859749853739767 ], [ -79.198878377976769, -4.841795433778818 ], [ -79.216749107259076, -4.839505251602747 ], [ -79.219029817451059, -4.857459612292326 ] ] ] } },
{ "type": "Feature", "properties": { }, "geometry": { "type": "Polygon", "coordinates": [ [ [ -79.306094669283183, -4.828022147482708 ], [ -79.288226636374731, -4.830323060679842 ], [ -79.285938167256674, -4.812367246419748 ], [ -79.303804126326682, -4.810066392411538 ], [ -79.306094669283183, -4.828022147482708 ] ] ] } },
{ "type": "Feature", "properties": { }, "geometry": { "type": "Polygon", "coordinates": [ [ [ -79.288226636374731, -4.830323060679842 ], [ -79.270358063244785, -4.832621827708062 ], [ -79.268071668155315, -4.814665954285696 ], [ -79.285938167256674, -4.812367246419748 ], [ -79.288226636374731, -4.830323060679842 ] ] ] } },
{ "type": "Feature", "properties": { }, "geometry": { "type": "Polygon", "coordinates": [ [ [ -79.126816455842942, -4.55886590385926 ], [ -79.108977263344926, -4.561148729568451 ], [ -79.10671394906052, -4.543165199294485 ], [ -79.124551073764025, -4.540882429099725 ], [ -79.126816455842942, -4.55886590385926 ] ] ] } },
{ "type": "Feature", "properties": { }, "geometry": { "type": "Polygon", "coordinates": [ [ [ -78.685515685223777, -4.212531260216306 ], [ -78.667710338884376, -4.214765712151349 ], [ -78.665504023466724, -4.196742941194421 ], [ -78.683307308295142, -4.194508539554632 ], [ -78.685515685223777, -4.212531260216306 ] ] ] } },
{ "type": "Feature", "properties": { }, "geometry": { "type": "Polygon", "coordinates": [ [ [ -78.621092307397518, -4.129096339632277 ], [ -78.603295711053718, -4.13132410527888 ], [ -78.601098166490658, -4.113292435648122 ], [ -78.618892703125411, -4.111064719171552 ], [ -78.621092307397518, -4.129096339632277 ] ] ] } },
{ "type": "Feature", "properties": { }, "geometry": { "type": "Polygon", "coordinates": [ [ [ -78.939105506373181, -4.070598931871582 ], [ -78.921320346905262, -4.072865267699354 ], [ -78.919086280393302, -4.054832727903885 ], [ -78.936869383908842, -4.052566441387499 ], [ -78.939105506373181, -4.070598931871582 ] ] ] } },
{ "type": "Feature", "properties": { }, "geometry": { "type": "Polygon", "coordinates": [ [ [ -78.601098166490658, -4.113292435648122 ], [ -78.583303113354035, -4.115518006470029 ], [ -78.581108144713937, -4.097484533453305 ], [ -78.598901138429483, -4.095259011568769 ], [ -78.601098166490658, -4.113292435648122 ] ] ] } },
{ "type": "Feature", "properties": { }, "geometry": { "type": "Polygon", "coordinates": [ [ [ -79.025777013900722, -4.041202828602564 ], [ -79.007996541137771, -4.043479841806308 ], [ -79.005752723791602, -4.025445787749483 ], [ -79.02353114199137, -4.02316882373381 ], [ -79.025777013900722, -4.041202828602564 ] ] ] } },
{ "type": "Feature", "properties": { }, "geometry": { "type": "Polygon", "coordinates": [ [ [ -79.092385977374946, -3.996003943389503 ], [ -79.07461172479961, -3.998289439385619 ], [ -79.072360747658976, -3.980252053561779 ], [ -79.090132947344188, -3.977966606390913 ], [ -79.092385977374946, -3.996003943389503 ] ] ] } },
{ "type": "Feature", "properties": { }, "geometry": { "type": "Polygon", "coordinates": [ [ [ -79.07461172479961, -3.998289439385619 ], [ -79.056836943642551, -4.000572790164651 ], [ -79.054588019577167, -3.98253535553334 ], [ -79.072360747658976, -3.980252053561779 ], [ -79.07461172479961, -3.998289439385619 ] ] ] } },
{ "type": "Feature", "properties": { }, "geometry": { "type": "Polygon", "coordinates": [ [ [ -79.090132947344188, -3.977966606390913 ], [ -79.072360747658976, -3.980252053561779 ], [ -79.070110298914955, -3.962212900982739 ], [ -79.0878804461762, -3.959927502419207 ], [ -79.090132947344188, -3.977966606390913 ] ] ] } },
{ "type": "Feature", "properties": { }, "geometry": { "type": "Polygon", "coordinates": [ [ [ -79.072360747658976, -3.980252053561779 ], [ -79.054588019577167, -3.98253535553334 ], [ -79.052339623442137, -3.964496154364397 ], [ -79.070110298914955, -3.962212900982739 ], [ -79.072360747658976, -3.980252053561779 ] ] ] } },
{ "type": "Feature", "properties": { }, "geometry": { "type": "Polygon", "coordinates": [ [ [ -79.016796689726348, -3.969056225526983 ], [ -78.999024432415808, -3.971333043280318 ], [ -78.996782721563122, -3.953291928933396 ], [ -79.014552926176847, -3.951015159499952 ], [ -79.016796689726348, -3.969056225526983 ] ] ] } },
{ "type": "Feature", "properties": { }, "geometry": { "type": "Polygon", "coordinates": [ [ [ -78.486561727678222, -3.614353832102446 ], [ -78.468822629961124, -3.616571677408009 ], [ -78.466648177175557, -3.598488294347624 ], [ -78.484385228009401, -3.596270491982895 ], [ -78.486561727678222, -3.614353832102446 ] ] ] } },
{ "type": "Feature", "properties": { }, "geometry": { "type": "Polygon", "coordinates": [ [ [ -78.575729414764183, -3.309222966759608 ], [ -78.558026571751526, -3.311455165188669 ], [ -78.555845975893817, -3.293343043671535 ], [ -78.573546780685177, -3.291110884858186 ], [ -78.575729414764183, -3.309222966759608 ] ] ] } },
{ "type": "Feature", "properties": { }, "geometry": { "type": "Polygon", "coordinates": [ [ [ -77.5052143473592, -0.664925376342297 ], [ -77.487791737647512, -0.667061798472029 ], [ -77.485770563882411, -0.64865582209969 ], [ -77.503191195948361, -0.646519407626935 ], [ -77.5052143473592, -0.664925376342297 ] ] ] } }
]
}
